ONEWEB-0456             
1 51646U 22012AA  24262.21635654 -.00000517  00000+0 -15167-2 0  9993
2 51646  87.8977 163.0046 0001917  81.6165 278.5180 13.10374573125929
ONEWEB-0457             
1 51647U 22012AB  24262.72763254  .00000462  00000+0  12873-2 0  9996
2 51647  87.8983 162.9340 0001936  65.3301 294.8028 13.10371828127298
ONEWEB-0458             
1 51648U 22012AC  24262.74919546 -.00000594  00000+0 -17367-2 0  9997
2 51648  87.8986 162.9463 0001599  73.8541 286.2763 13.10370832127254
ONEWEB-0461             
1 51649U 22012AD  24262.80746498  .00000028  00000+0  37981-4 0  9995
2 51649  87.9128 132.6221 0001744  76.1915 283.9411 13.17656807131371
ONEWEB-0463             
1 51650U 22012AE  24262.71372253  .00000108  00000+0  24509-3 0  9991
2 51650  87.9131 132.6919 0001670  76.2022 283.9295 13.17652390131158
ONEWEB-0464             
1 51651U 22012AF  24262.74587296 -.00000368  00000+0 -10905-2 0  9994
2 51651  87.8984 162.9361 0001866  87.2615 272.8726 13.10370408127272
ONEWEB-0468             
1 51652U 22012AG  24262.29436614 -.00000486  00000+0 -14296-2 0  9990
2 51652  87.8988 163.0176 0001805  75.9484 284.1844 13.10373023125893
ONEWEB-0473             
1 51653U 22012AH  24262.27943152  .00000025  00000+0  35888-4 0  9998
2 51653  87.8981 163.0240 0001693  75.0955 285.0360 13.10369962125898
ONEWEB-0474             
1 51654U 22012AJ  24262.27114224  .00000442  00000+0  12299-2 0  9991
2 51654  87.8973 163.0140 0001667  80.2769 279.8547 13.10370929125883
ONEWEB-0475             
1 51655U 22012AK  24262.64910183 -.00000045  00000+0 -14921-3 0  9997
2 51655  87.9135 132.6839 0001013  98.5813 261.5433 13.17653420131155
ONEWEB-0490             
1 54113U 22138A   24262.50098809  .00000058  00000+0  11338-3 0  9996
2 54113  87.9095  71.6000 0001769  95.5282 264.6053 13.19724593 92856
ONEWEB-0492             
1 54114U 22138B   24262.52625176 -.00000573  00000+0 -14637-2 0  9990
2 54114  87.9101  71.6032 0001850 100.2924 259.8417 13.19727750 92867
ONEWEB-0495             
1 54115U 22138C   24262.50414755  .00000024  00000+0  28064-4 0  9998
2 54115  87.9101  71.6189 0001744 119.2242 240.9065 13.19723612 92847
ONEWEB-0497             
1 54116U 22138D   24262.51676613  .00000071  00000+0  14596-3 0  9999
2 54116  87.9095  71.6006 0001802  95.6425 264.4914 13.19725014 92834
ONEWEB-0499             
1 54117U 22138E   24262.49939358  .00000053  00000+0  99730-4 0  9999
2 54117  87.9101  71.6095 0001247  93.8255 266.3020 13.19727165 92844
ONEWEB-0500             
1 54118U 22138F   24262.50256938  .00000093  00000+0  19951-3 0  9998
2 54118  87.9096  71.6019 0001845  93.5109 266.6234 13.19724067 92852
ONEWEB-0501             
1 54119U 22138G   24262.53257518 -.00000027  00000+0 -10013-3 0  9996
2 54119  87.9096  71.5932 0001692 110.7145 249.4169 13.19725848 92830
ONEWEB-0502             
1 54120U 22138H   24262.51835774  .00000037  00000+0  60815-4 0  9997
2 54120  87.9093  71.5837 0001550 102.0592 258.0714 13.19725141 93723
ONEWEB-0503             
1 54121U 22138J   24262.50728795  .00000025  00000+0  29387-4 0  9997
2 54121  87.9096  71.5922 0001413  82.9393 277.1900 13.19728252 92842
ONEWEB-0504             
1 54122U 22138K   24262.49467287 -.00000010  00000+0 -57507-4 0  9993
2 54122  87.9099  71.6029 0001437  98.7138 261.4157 13.19724035 92859
ONEWEB-0505             
1 54123U 22138L   24262.49151284  .00000038  00000+0  61861-4 0  9997
2 54123  87.9096  71.5972 0001515 116.8296 243.2992 13.19724148 92835
ONEWEB-0506             
1 54124U 22138M   24262.54205192 -.00000057  00000+0 -17532-3 0  9990
2 54124  87.9096  71.5842 0001669  98.6570 261.4752 13.19725601 92835
ONEWEB-0507             
1 54125U 22138N   24262.48677582  .00000069  00000+0  14044-3 0  9996
2 54125  87.9106  71.6242 0001799 102.0247 258.1087 13.19724143 92876
ONEWEB-0508             
1 54126U 22138P   24262.48360122  .00000011  00000+0 -53229-5 0  9994
2 54126  87.9101  71.6155 0001864 107.4964 252.6372 13.19723270 92857
ONEWEB-0509             
1 54127U 22138Q   24262.45834077 -.00000013  00000+0 -64467-4 0  9995
2 54127  87.9093  71.6014 0001658  95.9015 264.2307 13.19724844 92823
ONEWEB-0510             
1 54128U 22138R   24262.47141919  .00000057  00000+0  10800-3 0  9991
2 54128  87.9240  41.0775 0002160  91.9863 268.1518 13.20768654 95233
ONEWEB-0511             
1 54129U 22138S   24262.53098365 -.00000025  00000+0 -95916-4 0  9994
2 54129  87.9094  71.5904 0001389  89.9316 270.1976 13.19726284 92863
ONEWEB-0512             
1 54130U 22138T   24262.52310046 -.00000004  00000+0 -42672-4 0  9996
2 54130  87.9101  71.6155 0001522 107.5786 252.5513 13.19723999 92838
ONEWEB-0513             
1 54131U 22138U   24262.49383564  .00000049  00000+0  90849-4 0  9994
2 54131  87.9101  71.6133 0001343 109.0700 251.0579 13.19728045 92719
ONEWEB-0514             
1 54132U 22138V   24262.53889839 -.00000017  00000+0 -73819-4 0  9991
2 54132  87.9097  71.5966 0001720  89.8740 270.2590 13.19724218 92854
ONEWEB-0515             
1 54133U 22138W   24262.38305569 -.00000038  00000+0 -12548-3 0  9992
2 54133  87.9240  41.0741 0002701  87.5815 272.5627 13.20772685 95241
ONEWEB-0516             
1 54134U 22138X   24262.51361848  .00000055  00000+0  10527-3 0  9992
2 54134  87.9103  71.6190 0001831  93.6193 266.5149 13.19724410 92854
ONEWEB-0517             
1 54135U 22138Y   24262.49306296 -.00000149  00000+0 -40485-3 0  9998
2 54135  87.9097  71.6016 0001388  84.7100 275.4191 13.19725676 92851
ONEWEB-0518             
1 54136U 22138Z   24262.51204283  .00000046  00000+0  83673-4 0  9996
2 54136  87.9103  71.6168 0001645  90.5476 269.5845 13.19723982 92853
ONEWEB-0519             
1 54137U 22138AA  24262.53728090 -.00000025  00000+0 -94863-4 0  9998
2 54137  87.9099  71.5877 0001399  90.7910 269.3383 13.19719389 92867
ONEWEB-0520             
1 54138U 22138AB  24262.49622341 -.00000413  00000+0 -10628-2 0  9992
2 54138  87.9098  71.5988 0001751 107.2294 252.9031 13.19729604 92848
ONEWEB-0521             
1 54139U 22138AC  24262.52940256  .00000006  00000+0 -17126-4 0  9994
2 54139  87.9094  71.5835 0001650  82.8348 277.2972 13.19728321 92795
ONEWEB-0522             
1 54140U 22138AD  24262.50888266  .00000039  00000+0  65093-4 0  9997
2 54140  87.9095  71.5894 0001827  94.6682 265.4659 13.19724645 92832
ONEWEB-0523             
1 54141U 22138AE  24262.44616155 -.00000001  00000+0 -34232-4 0  9999
2 54141  87.9240  41.0906 0002228  74.6795 285.4584 13.20774555 95255
ONEWEB-0524             
1 54142U 22138AF  24262.43513951  .00000001  00000+0 -29754-4 0  9991
2 54142  87.9239  41.0957 0002864  94.6159 265.5301 13.20772013 95255
ONEWEB-0525             
1 54143U 22138AG  24262.52781644 -.00000025  00000+0 -96046-4 0  9993
2 54143  87.9096  71.5973 0001675 102.5813 257.5507 13.19722735 92854
ONEWEB-0526             
1 54144U 22138AH  24262.48516119  .00000040  00000+0  68175-4 0  9999
2 54144  87.9096  71.5992 0001772  96.0309 264.1026 13.19728814 92822
ONEWEB-0529             
1 54145U 22138AJ  24262.48834686  .00000083  00000+0  17563-3 0  9993
2 54145  87.9105  71.6205 0001729 104.1405 255.9920 13.19727035 92849
ONEWEB-0531             
1 54146U 22138AK  24262.79969224  .00000016  00000+0  80955-5 0  9998
2 54146  87.9241  41.0148 0002625  79.4002 280.7427 13.20775643 96179
ONEWEB-0535             
1 54147U 22138AL  24262.52151755 -.00000059  00000+0 -17916-3 0  9996
2 54147  87.9094  71.5895 0001923  83.6028 276.5323 13.19725488 92868
ONEWEB-0536             
1 54148U 22138AM  24262.40830268  .00000304  00000+0  71532-3 0  9992
2 54148  87.9243  41.1412 0002123  68.2854 291.8505 13.20773037 95244
ONEWEB-0527             
1 54642U 22166A   24262.79166325  .00000089  00000+0  18336-3 0  9993
2 54642  87.9363  10.7113 0001901  99.7903 260.3445 13.21827394 87919
ONEWEB-0528             
1 54643U 22166B   24262.34382379  .00000046  00000+0  79901-4 0  9993
2 54643  87.9365  10.7904 0001916 104.6037 255.5309 13.21825692 87419
ONEWEB-0539             
1 54644U 22166C   24262.38008875 -.00000005  00000+0 -44532-4 0  9993
2 54644  87.9368  10.7865 0001669 101.8263 258.3058 13.21825506 87410
ONEWEB-0540             
1 54645U 22166D   24262.75302582 -.00000065  00000+0 -18963-3 0  9991
2 54645  87.9363  10.7256 0001592 103.7186 256.4125 13.21829176 87927
ONEWEB-0542             
1 54646U 22166E   24262.38956161 -.00001107  00000+0 -27121-2 0  9992
2 54646  87.9368  10.7841 0001489  90.5723 269.5581 13.21818127 87417
ONEWEB-0545             
1 54647U 22166F   24262.35640955 -.00000211  00000+0 -54286-3 0  9999
2 54647  87.9357  10.8024 0001333 105.4563 254.6718 13.21823462 87376
ONEWEB-0580             
1 54648U 22166G   24262.32959724 -.00000455  00000+0 -11327-2 0  9992
2 54648  87.9361  10.7831 0001376  90.3878 269.7413 13.21825432 87418
ONEWEB-0582             
1 54649U 22166H   24262.37219997 -.00000009  00000+0 -53463-4 0  9993
2 54649  87.9360  10.8092 0001354  81.8345 278.2942 13.21825609 87393
ONEWEB-0583             
1 54650U 22166J   24262.30753021  .00000058  00000+0  10824-3 0  9994
2 54650  87.9362  10.8207 0001774 101.3659 258.7674 13.21826072 87397
ONEWEB-0584             
1 54651U 22166K   24262.32802446  .00000065  00000+0  12509-3 0  9993
2 54651  87.9367  10.7872 0001518  96.6288 263.5019 13.21827170 87386
ONEWEB-0585             
1 54652U 22166L   24262.35327775  .00000031  00000+0  44591-4 0  9994
2 54652  87.9366  10.7929 0001944 100.4495 259.6858 13.21826333 87394
ONEWEB-0586             
1 54653U 22166M   24262.74437683  .00000005  00000+0 -20218-4 0  9990
2 54653  87.9360  10.7245 0001611  99.1053 261.0264 13.21826293 87916
ONEWEB-0587             
1 54654U 22166N   24262.75383631 -.00000046  00000+0 -14392-3 0  9996
2 54654  87.9358  10.6757 0002164 105.7640 254.3733 13.21826497 88060
